ONEWEB-0589             
1 54655U 22166P   24134.43579074  .00000104  00000+0  21963-3 0  9993
2 54655  87.9316  36.2110 0001376  49.8082 310.3172 13.21826252 70514
ONEWEB-0590             
1 54656U 22166Q   24134.45944451  .00000166  00000+0  36928-3 0  9996
2 54656  87.9320  36.2118 0002071  77.7772 282.3593 13.21826788 70505
ONEWEB-0591             
1 54657U 22166R   24134.47205518  .00000008  00000+0 -13153-4 0  9995
2 54657  87.9317  36.2069 0001805  76.1098 284.0236 13.21827321 70535
ONEWEB-0592             
1 54658U 22166S   24134.47521142 -.00000025  00000+0 -92560-4 0  9999
2 54658  87.9313  36.1731 0001812  71.4398 288.6932 13.21826344 70410
ONEWEB-0593             
1 54659U 22166T   24134.42317578  .00000097  00000+0  20416-3 0  9998
2 54659  87.9316  36.2076 0001774  72.8322 287.3006 13.21826555 70519
ONEWEB-0594             
1 54660U 22166U   24134.44209689  .00000134  00000+0  29382-3 0  9998
2 54660  87.9320  36.2024 0001871  85.5867 274.5481 13.21826629 70531
ONEWEB-0595             
1 54661U 22166V   24134.72281788 -.00000924  00000+0 -22686-2 0  9998
2 54661  87.9318  36.1342 0001778  82.0567 278.0768 13.21816045 71018
ONEWEB-0596             
1 54662U 22166W   24134.46890996  .00000074  00000+0  14804-3 0  9995
2 54662  87.9319  36.1900 0001848  68.8292 291.3039 13.21828207 70511
